CCSDS_OMM_VERS,COMMENT,CREATION_DATE,ORIGINATOR,OBJECT_NAME,OBJECT_ID,CENTER_NAME,REF_FRAME,TIME_SYSTEM,MEAN_ELEMENT_THEORY,EPOCH,MEAN_MOTION,ECCENTRICITY,INCLINATION,RA_OF_ASC_NODE,ARG_OF_PERICENTER,MEAN_ANOMALY,EPHEMERIS_TYPE,CLASSIFICATION_TYPE,NORAD_CAT_ID,ELEMENT_SET_NO,REV_AT_EPOCH,BSTAR,MEAN_MOTION_DOT,MEAN_MOTION_DDOT,SEMIMAJOR_AXIS,PERIOD,APOAPSIS,PERIAPSIS,OBJECT_TYPE,RCS_SIZE,COUNTRY_CODE,LAUNCH_DATE,SITE,DECAY_DATE,FILE,GP_ID,TLE_LINE0,TLE_LINE1,TLE_LINE2
"2.0","GENERATED VIA SPACE-TRACK.ORG API","2020-11-20T19:18:39","18 SPCS","COSMOS 1818","1987-011A","EARTH","TEME","UTC","SGP4","2020-11-20T08:27:22.833504","14.31460714","0.00163200","65.0102","186.9012","286.0516","73.8771","0","U","17369","999","81757","0.00000197820000","-0.00000095","0.0000000000000","7164.989","100.596","798.547","775.161","PAYLOAD","LARGE","CIS","1987-02-01","TTMTR","","2881969","165924628","0 COSMOS 1818","1 17369U 87011A   20325.35234761 -.00000095 +00000-0 +19782-5 0  9993","2 17369 065.0102 186.9012 0016320 286.0516 073.8771 14.31460714817571"
"2.0","GENERATED VIA SPACE-TRACK.ORG API","2020-11-20T19:18:39","18 SPCS","IRIDIUM 136","2017-061H","EARTH","TEME","UTC","SGP4","2020-11-20T05:53:21.200928","14.34217763","0.00015510","86.3973","155.6645","92.7383","267.3991","0","U","42962","999","16316","-0.00000405550000","0.00000008","0.0000000000000","7155.804","100.403","778.778","776.559","PAYLOAD","LARGE","US","2017-10-09","AFWTR","","2881969","165935162","0 IRIDIUM 136","1 42962U 17061H   20325.24538427 +.00000008 +00000-0 -40555-5 0  9998","2 42962 086.3973 155.6645 0001551 092.7383 267.3991 14.34217763163169"
"2.0","GENERATED VIA SPACE-TRACK.ORG API","2020-11-20T03:36:31","18 SPCS","COSMOS 1818","1987-011A","EARTH","TEME","UTC","SGP4","2020-11-19T22:23:45.533760","14.31460706","0.00163060","65.0102","188.0749","286.0165","73.9124","0","U","17369","999","81751","0.00000132730000","-0.00000097","0.0000000000000","7164.989","100.596","798.537","775.171","PAYLOAD","LARGE","CIS","1987-02-01","TTMTR","","2881187","165889550","0 COSMOS 1818","1 17369U 87011A   20324.93316590 -.00000097 +00000-0 +13273-5 0  9998","2 17369 065.0102 188.0749 0016306 286.0165 073.9124 14.31460706817513"
"2.0","GENERATED VIA SPACE-TRACK.ORG API","2020-11-20T03:36:31","18 SPCS","IRIDIUM 136","2017-061H","EARTH","TEME","UTC","SGP4","2020-11-19T21:31:01.204608","14.34217758","0.00015490","86.3974","155.8103","92.3907","267.7466","0","U","42962","999","16311","-0.00000457000000","0.00000007","0.0000000000000","7155.804","100.403","778.777","776.560","PAYLOAD","LARGE","US","2017-10-09","AFWTR","","2881187","165901658","0 IRIDIUM 136","1 42962U 17061H   20324.89654172 +.00000007 +00000-0 -45700-5 0  9990","2 42962 086.3974 155.8103 0001549 092.3907 267.7466 14.34217758163116"
"2.0","GENERATED VIA SPACE-TRACK.ORG API","2020-11-19T12:36:11","18 SPCS","IRIDIUM 136","2017-061H","EARTH","TEME","UTC","SGP4","2020-11-19T11:28:13.208160","14.34217767","0.00015490","86.3974","155.9852","91.8670","268.2703","0","U","42962","999","16305","-0.00000472090000","0.00000007","0.0000000000000","7155.804","100.403","778.777","776.560","PAYLOAD","LARGE","US","2017-10-09","AFWTR","","2880448","165849593","0 IRIDIUM 136","1 42962U 17061H   20324.47793065  .00000007  00000-0 -47209-5 0  9995","2 42962  86.3974 155.9852 0001549  91.8670 268.2703 14.34217767163052"
"2.0","GENERATED VIA SPACE-TRACK.ORG API","2020-11-19T12:36:11","18 SPCS","COSMOS 1818","1987-011A","EARTH","TEME","UTC","SGP4","2020-11-19T08:58:55.805664","14.31460707","0.00162860","65.0103","189.6400","286.0379","73.8912","0","U","17369","999","81771","0.00000229860000","-0.00000094","0.0000000000000","7164.989","100.596","798.523","775.185","PAYLOAD","LARGE","CIS","1987-02-01","TTMTR","","2880429","165849368","0 COSMOS 1818","1 17369U 87011A   20324.37425701 -.00000094  00000-0  22986-5 0  9999","2 17369  65.0103 189.6400 0016286 286.0379  73.8912 14.31460707817716"
"2.0","GENERATED VIA SPACE-TRACK.ORG API","2020-11-19T20:53:03","18 SPCS","IRIDIUM 136","2017-061H","EARTH","TEME","UTC","SGP4","2020-11-19T01:25:25.209984","14.34217769","0.00015470","86.3975","156.1600","91.5368","268.6005","0","U","42962","999","16299","-0.00000531370000","0.00000005","0.0000000000000","7155.804","100.403","778.776","776.562","PAYLOAD","LARGE","US","2017-10-09","AFWTR","","2880719","165872002","0 IRIDIUM 136","1 42962U 17061H   20324.05931956 +.00000005 +00000-0 -53137-5 0  9997","2 42962 086.3975 156.1600 0001547 091.5368 268.6005 14.34217769162999"
"2.0","GENERATED VIA SPACE-TRACK.ORG API","2020-11-19T20:53:03","18 SPCS","COSMOS 1818","1987-011A","EARTH","TEME","UTC","SGP4","2020-11-19T00:35:54.725280","14.31460697","0.00162730","65.0104","190.6181","286.0200","73.9092","0","U","17369","999","81738","0.00000374620000","-0.00000090","0.0000000000000","7164.989","100.596","798.514","775.194","PAYLOAD","LARGE","CIS","1987-02-01","TTMTR","","2880719","165861160","0 COSMOS 1818","1 17369U 87011A   20324.02493895 -.00000090 +00000-0 +37462-5 0  9991","2 17369 065.0104 190.6181 0016273 286.0200 073.9092 14.31460697817385"
"2.0","GENERATED VIA SPACE-TRACK.ORG API","2020-11-19T03:58:39","18 SPCS","COSMOS 1818","1987-011A","EARTH","TEME","UTC","SGP4","2020-11-18T21:14:42.292608","14.31460698","0.00162680","65.0104","191.0094","286.0061","73.9231","0","U","17369","999","81736","0.00000411880000","-0.00000089","0.0000000000000","7164.989","100.596","798.510","775.198","PAYLOAD","LARGE","CIS","1987-02-01","TTMTR","","2879891","165821469","0 COSMOS 1818","1 17369U 87011A   20323.88521172 -.00000089 +00000-0 +41188-5 0  9992","2 17369 065.0104 191.0094 0016268 286.0061 073.9231 14.31460698817366"
"2.0","GENERATED VIA SPACE-TRACK.ORG API","2020-11-19T03:58:39","18 SPCS","IRIDIUM 136","2017-061H","EARTH","TEME","UTC","SGP4","2020-11-18T18:43:33.215520","14.34217738","0.00015460","86.3975","156.2766","91.1910","268.9463","0","U","42962","999","16295","-0.00000687300000","0.00000001","0.0000000000000","7155.804","100.403","778.775","776.562","PAYLOAD","LARGE","US","2017-10-09","AFWTR","","2879891","165834250","0 IRIDIUM 136","1 42962U 17061H   20323.78024555 +.00000001 +00000-0 -68730-5 0  9995","2 42962 086.3975 156.2766 0001546 091.1910 268.9463 14.34217738162954"
"2.0","GENERATED VIA SPACE-TRACK.ORG API","2020-11-18T22:37:40","18 SPCS","IRIDIUM 136","2017-061H","EARTH","TEME","UTC","SGP4","2020-11-18T13:42:09.216864","14.34217750","0.00015460","86.3975","156.3641","91.0218","269.1155","0","U","42962","999","16292","-0.00000680260000","0.00000001","0.0000000000000","7155.804","100.403","778.775","776.562","PAYLOAD","LARGE","US","2017-10-09","AFWTR","","2879575","165806552","0 IRIDIUM 136","1 42962U 17061H   20323.57094001 +.00000001 +00000-0 -68026-5 0  9993","2 42962 086.3975 156.3641 0001546 091.0218 269.1155 14.34217750162929"
"2.0","GENERATED VIA SPACE-TRACK.ORG API","2020-11-18T22:37:40","18 SPCS","COSMOS 1818","1987-011A","EARTH","TEME","UTC","SGP4","2020-11-18T09:30:28.783872","14.31460678","0.00162520","65.0104","192.3788","286.0242","73.9052","0","U","17369","999","81729","0.00000682980000","-0.00000082","0.0000000000000","7164.989","100.596","798.499","775.209","PAYLOAD","LARGE","CIS","1987-02-01","TTMTR","","2879575","165794050","0 COSMOS 1818","1 17369U 87011A   20323.39616648 -.00000082 +00000-0 +68298-5 0  9995","2 17369 065.0104 192.3788 0016252 286.0242 073.9052 14.31460678817295"
"2.0","GENERATED VIA SPACE-TRACK.ORG API","2020-11-18T06:26:10","18 SPCS","IRIDIUM 136","2017-061H","EARTH","TEME","UTC","SGP4","2020-11-18T01:58:53.218560","14.34217769","0.00015420","86.3976","156.5681","90.6937","269.4435","0","U","42962","999","16285","-0.00000634930000","0.00000002","0.0000000000000","7155.804","100.403","778.772","776.565","PAYLOAD","LARGE","US","2017-10-09","AFWTR","","2878794","165770831","0 IRIDIUM 136","1 42962U 17061H   20323.08256040  .00000002  00000-0 -63493-5 0  9996","2 42962  86.3976 156.5681 0001542  90.6937 269.4435 14.34217769162851"
"2.0","GENERATED VIA SPACE-TRACK.ORG API","2020-11-18T06:26:10","18 SPCS","COSMOS 1818","1987-011A","EARTH","TEME","UTC","SGP4","2020-11-18T01:07:27.706080","14.31460676","0.00162420","65.0105","193.3569","286.0128","73.9167","0","U","17369","999","81752","0.00001069400000","-0.00000072","0.0000000000000","7164.989","100.596","798.491","775.217","PAYLOAD","LARGE","CIS","1987-02-01","TTMTR","","2878774","165770094","0 COSMOS 1818","1 17369U 87011A   20323.04684845 -.00000072  00000-0  10694-4 0  9996","2 17369  65.0105 193.3569 0016242 286.0128  73.9167 14.31460676817527"
"2.0","GENERATED VIA SPACE-TRACK.ORG API","2020-11-18T02:19:31","18 SPCS","COSMOS 1818","1987-011A","EARTH","TEME","UTC","SGP4","2020-11-17T21:46:15.271680","14.31460694","0.00162370","65.0105","193.7482","285.9969","73.9326","0","U","17369","999","81722","0.00001272100000","-0.00000066","0.0000000000000","7164.989","100.596","798.488","775.220","PAYLOAD","LARGE","CIS","1987-02-01","TTMTR","","2878669","165752220","0 COSMOS 1818","1 17369U 87011A   20322.90712120 -.00000066 +00000-0 +12721-4 0  9994","2 17369 065.0105 193.7482 0016237 285.9969 073.9326 14.31460694817224"
"2.0","GENERATED VIA SPACE-TRACK.ORG API","2020-11-18T02:19:31","18 SPCS","IRIDIUM 136","2017-061H","EARTH","TEME","UTC","SGP4","2020-11-17T19:17:01.222368","14.34217754","0.00015390","86.3977","156.6847","90.3559","269.7813","0","U","42962","999","16281","-0.00000738970000","-0.00000001","0.0000000000000","7155.804","100.403","778.770","776.567","PAYLOAD","LARGE","US","2017-10-09","AFWTR","","2878669","165763652","0 IRIDIUM 136","1 42962U 17061H   20322.80348637 -.00000001 +00000-0 -73897-5 0  9998","2 42962 086.3977 156.6847 0001539 090.3559 269.7813 14.34217754162813"
